  <relation id="-65335">
    <tag k="name" v="Australia and Oceania"/>
    <tag k="name:ar" v="أستراليا وأوقيانوسيا"/>
    <tag k="name:bg" v="Австралия и Океания"/>
    <tag k="name:by" v="Аўстралія і Акіянія"/>
    <tag k="name:cz" v="Austrálie a Oceánie"/>
    <tag k="name:de" v="Australien und Ozeanien"/>
    <tag k="name:en" v="Australia and Oceania"/>
    <tag k="name:es" v="Australia y Oceanía"/>
    <tag k="name:fi" v="Australia ja Oseania"/>
    <tag k="name:fr" v="Australie et Océanie"/>
    <tag k="name:he" v="אוסטרליה ואוקיאניה"/>
    <tag k="name:hi" v="ऑस्ट्रेलिया और ओशिनिया"/>
    <tag k="name:hu" v="Ausztrália és Óceánia"/>
    <tag k="name:it" v="Australia e Oceania"/>
    <tag k="name:ja" v="オーストラリアとオセアニア"/>
    <tag k="name:ko" v="호주와 오세아니아"/>
    <tag k="name:lt" v="Austrālija un Okeānija"/>
    <tag k="name:lv" v="Australija ir Okeanija"/>
    <tag k="name:no" v="Australia og Oceania"/>
    <tag k="name:pl" v="Australia i Oceania"/>
    <tag k="name:pt" v="Austrália e Oceania"/>
    <tag k="name:ro" v="Australia și Oceania"/>
    <tag k="name:ru" v="Австралия и Океания"/>
    <tag k="name:sk" v="Austrália a Oceánia"/>
    <tag k="name:sl" v="Avstralija in Oceanija"/>
    <tag k="name:sr" v="Аустралија и Океанија"/>
    <tag k="name:sv" v="Australien och Oceanien"/>
    <tag k="name:uk" v="Австралія та Океанія"/>
  </relation>

  <relation id="-65336">
    <tag k="name" v="Oceania"/>
    <tag k="name:ar" v="أوقيانوسيا"/>
    <tag k="name:bg" v="Океания"/>
    <tag k="name:by" v="Акіянія"/>
    <tag k="name:cz" v="Oceánie"/>
    <tag k="name:de" v="Ozeanien"/>
    <tag k="name:en" v="Oceania"/>
    <tag k="name:es" v="Oceanía"/>
    <tag k="name:fi" v="Oseania"/>
    <tag k="name:fr" v="Océanie"/>
    <tag k="name:he" v="אוקיאניה"/>
    <tag k="name:hi" v="ओशिनिया"/>
    <tag k="name:hu" v="Óceánia"/>
    <tag k="name:it" v="Oceania"/>
    <tag k="name:ja" v="オセアニア"/>
    <tag k="name:ko" v="오세아니아"/>
    <tag k="name:lt" v="Okeānija"/>
    <tag k="name:lv" v="Okeanija"/>
    <tag k="name:no" v="Oceania"/>
    <tag k="name:pl" v="Oceania"/>
    <tag k="name:pt" v="Oceania"/>
    <tag k="name:ro" v="Oceania"/>
    <tag k="name:ru" v="Океания"/>
    <tag k="name:sk" v="Oceánia"/>
    <tag k="name:sl" v="Oceanija"/>
    <tag k="name:sr" v="Океанија"/>
    <tag k="name:sv" v="Oceanien"/>
    <tag k="name:uk" v="Океанія"/>
    <tag k="wikipedia" v="en:Oceania"/>
  </relation>

  <relation id="-65337">
    <tag k="name" v="Caribbean archipelago"/>
    <tag k="name:ar" v="أرخبيل البحر الكاريبي"/>
    <tag k="name:bg" v="Карибския архипелаг"/>
    <tag k="name:by" v="Карыбскі архіпелаг"/>
    <tag k="name:cz" v="Karibské souostroví"/>
    <tag k="name:de" v="Karibik-Archipel"/>
    <tag k="name:en" v="Caribbean archipelago"/>
    <tag k="name:es" v="archipiélago del Caribe"/>
    <tag k="name:fi" v="Karibian saaristossa"/>
    <tag k="name:fr" v="archipel des Caraïbes"/>
    <tag k="name:he" v="ארכיפלג האיים הקאריביים"/>
    <tag k="name:hi" v="कैरेबियाई द्वीपसमूह"/>
    <tag k="name:hu" v="Karib-szigetvilág"/>
    <tag k="name:it" v="arcipelago caraibico"/>
    <tag k="name:ja" v="カリブ海列島"/>
    <tag k="name:ko" v="카리브 군도"/>
    <tag k="name:lt" v="Karibų salynas"/>
    <tag k="name:lv" v="Caribbean arhipelāgs"/>
    <tag k="name:no" v="caribbean skjærgården"/>
    <tag k="name:pl" v="archipelagu Karaibów"/>
    <tag k="name:pt" v="arquipélago caribenho"/>
    <tag k="name:ro" v="arhipelag Caraibe"/>
    <tag k="name:ru" v="Карибский архипелаг"/>
    <tag k="name:sk" v="Karibské súostrovie"/>
    <tag k="name:sl" v="Caribbean otočje"/>
    <tag k="name:sr" v="Кариби архипелаг"/>
    <tag k="name:sv" v="Caribbean skärgården"/>
    <tag k="name:uk" v="Карибський архіпелаг"/>
    <tag k="wikipedia" v="en:Caribbean"/>
  </relation>
  <relation id="-65338">
    <tag k="name" v="Netherlands Antilles"/>
    <tag k="name:ar" v="جزر_الأنتيل_الهولندية"/>
    <tag k="name:bg" v="Нидерландски Антили"/>
    <tag k="name:by" v="Нідэрландскія Антыльскія астравы"/>
    <tag k="name:cz" v="Nizozemské Antily"/>
    <tag k="name:de" v="Niederländische Antillen"/>
    <tag k="name:en" v="Netherlands Antilles"/>
    <tag k="name:es" v="Antillas Neerlandesas"/>
    <tag k="name:fi" v="Alankomaiden Antillit"/>
    <tag k="name:fr" v="Antilles néerlandaises"/>
    <tag k="name:hi" v="नीदरलान्स आन्तिलन"/>
    <tag k="name:hu" v="Holland Antillák"/>
    <tag k="name:it" v="Antille Olandesi"/>
    <tag k="name:ja" v="オランダ領アンティル"/>
    <tag k="name:ko" v="네덜란드령 안틸레스"/>
    <tag k="name:lt" v="Nyderlandų Antilai"/>
    <tag k="name:lv" v="Nīderlandes Antiļas"/>
    <tag k="name:no" v="De nederlandske Antiller"/>
    <tag k="name:pl" v="Antyle Holenderskie"/>
    <tag k="name:pt" v="Antilhas Neerlandesas"/>
    <tag k="name:ro" v="Antilele Olandeze"/>
    <tag k="name:ru" v="Нидерландские Антильские острова"/>
    <tag k="name:sk" v="Holandské Antily"/>
    <tag k="name:sl" v="Nizozemski Antili"/>
    <tag k="name:sr" v="Холандски Антили"/>
    <tag k="name:sv" v="Nederländska Antillerna"/>
    <tag k="name:uk" v="Нідерландські Антильські острови"/>
    <tag k="wikipedia" v="nl:Nederlandse Antillen"/>
  </relation>
  <node id='-65339'>
    <tag k='name' v='Bakersfield' />
    <tag k='name:en' v='Bakersfield' />
    <tag k='name:ru' v='Бейкерсфилд' />
    <tag k='name:uk' v='Бейкерсфілд' />
    <tag k='name:zh' v='贝克斯菲尔德' />
    <tag k='name:fi' v='Bakersfield' />
    <tag k='name:es' v='Bakersfield' />
    <tag k='name:sr' v='Бејкерсфилд' />
  </node>
  <node id='-65340'>
    <tag k='name' v='Chico' />
    <tag k='name:en' v='Chico' />
    <tag k='name:ru' v='Чико' />
    <tag k='name:uk' v='Чіко' />
    <tag k='name:es' v='Chico' />
    <tag k='name:ar' v='تشيكو' />
    <tag k='name:fr' v='Chico' />
    <tag k='name:hy' v='Չիքո' />
    <tag k='name:pt' v='Chico' />
    <tag k='name:sr' v='Чико' />
    <tag k='name:zh' v='奇科' />
  </node>
  <node id='-65341'>
    <tag k='name' v='Fresno' />
    <tag k='name:he' v='פרזנו' />
    <tag k='name:lt' v='Fresnas' />
    <tag k='name:ru' v='Фресно' />
    <tag k='name:uk' v='Фресно' />
    <tag k='name:az' v='Fresno' />
    <tag k='name:hy' v='Ֆրեզնո' />
    <tag k='name:sr' v='Фрезно' />
    <tag k='name:fi' v='Fresno' />
    <tag k='name:zh' v='弗雷斯诺' />
  </node>
  <node id='-65342'>
    <tag k='name' v='Lancaster' />
    <tag k='name:en' v='Lancaster' />
    <tag k='name:ru' v='Ланкастер' />
    <tag k='name:uk' v='Ланкастер' />
    <tag k='name:ar' v='لانكستر' />
    <tag k='name:az' v='Lankaster' />
    <tag k='name:es' v='Lancaster' />
    <tag k='name:pt' v='Lancaster' />
    <tag k='name:sr' v='Ланкастер' />
    <tag k='name:fi' v='Lancaster' />
    <tag k='name:zh' v='蘭開斯特' />
  </node>
  <node id='-65343'>
    <tag k='name' v='Los Angeles' />
    <tag k='name:ar' v='لوس أنجلوس' />
    <tag k='name:ba' v='Лос-Анджелес' />
    <tag k='name:bn' v='লোস আংজেলেস' />
    <tag k='name:de' v='Los Angeles' />
    <tag k='name:el' v='Λος Άντζελες' />
    <tag k='name:es' v='Los Ángeles' />
    <tag k='name:fa' v='لوس آنجلس' />
    <tag k='name:fr' v='Los Angeles' />
    <tag k='name:he' v='לוס אנג&apos;לס' />
    <tag k='name:hi' v='लॊस आंजॆलॆस' />
    <tag k='name:ja' v='ロサンゼルス' />
    <tag k='name:kn' v='ಲೊಸ್ ಆಂಜೆಲೆಸ್' />
    <tag k='name:ko' v='로스 앤젤레스' />
    <tag k='name:lv' v='Losandželosa' />
    <tag k='name:oc' v='Los Angeles' />
    <tag k='name:ru' v='Лос-Анджелес' />
    <tag k='name:ta' v='லொஸ் ஆஞ்ஜெலெஸ்' />
    <tag k='name:th' v='ลอสแอนเจลิส' />
    <tag k='name:tt' v='Лос-Анджелес' />
    <tag k='name:uk' v='Лос-Анджелес' />
    <tag k='name:zh' v='洛杉矶' />
  </node>
  <node id='-65344'>
    <tag k='name' v='Los Angeles north' />
    <tag k='name:ar' v='لوس انجليس شمالا' />
    <tag k='name:de' v='Los Angeles im Norden' />
    <tag k='name:el' v='Λος Άντζελες βόρεια' />
    <tag k='name:es' v='Los Angeles norte' />
    <tag k='name:fr' v='Los Angeles nord' />
    <tag k='name:he' v='לוס אנג&apos;לס צפונה' />
    <tag k='name:hi' v='लॉस एंजिल्स उत्तर' />
    <tag k='name:ja' v='ロサンゼルス北部' />
    <tag k='name:ko' v='로스 앤젤레스 북부' />
    <tag k='name:lv' v='Losandželosas ziemeļi' />
    <tag k='name:ru' v='Лос-Анджелес' />
    <tag k='name:uk' v='Північ Лос-Анджелес' />
    <tag k='name:zh' v='洛杉矶北部' />
  </node>
  <node id='-65345'>
    <tag k='name' v='Sacramento' />
    <tag k='name:ang' v='Sacramento' />
    <tag k='name:ja' v='サクラメント' />
    <tag k='name:lt' v='Sakramentas' />
    <tag k='name:pl' v='Sacramento' />
    <tag k='name:fi' v='Sacramento' />
    <tag k='name:ru' v='Сакраменто' />
    <tag k='name:sr' v='Сакраменто' />
    <tag k='name:ta' v='சேக்ரமெண்டோ' />
    <tag k='name:uk' v='Сакраменто' />
    <tag k='name:zh' v='沙加缅度' />
  </node>
  <node id='-65346'>
    <tag k='name' v='San Diego' />
    <tag k='name:he' v='סן דייגו' />
    <tag k='name:lt' v='San Diegas' />
    <tag k='name:pt' v='São Diego' />
    <tag k='name:ru' v='Сан-Диего' />
    <tag k='name:uk' v='Сан-Дієго' />
    <tag k='name:zh' v='聖地牙哥' />
    <tag k='name:ar' v='سان دييغو' />
    <tag k='name:de' v='San Diego' />
    <tag k='name:es' v='San Diego' />
    <tag k='name:pt' v='San Diego' />
  </node>
  <node id='-65347'>
    <tag k='name' v='San Francisco' />
    <tag k='name:ckb' v='سان فرانسیسکۆ' />
    <tag k='name:de' v='San Francisco' />
    <tag k='name:en' v='San Francisco' />
    <tag k='name:eu' v='San Francisco' />
    <tag k='name:fa' v='سان فرانسیسکو' />
    <tag k='name:hi' v='सैन फ्रांसिस्को' />
    <tag k='name:ja' v='サンフランシスコ' />
    <tag k='name:kn' v='ಸಾನ್ ಫ್ರಾನ್ಸಿಸ್ಕೊ' />
    <tag k='name:ko' v='샌프란시스코' />
    <tag k='name:pt' v='São Francisco' />
    <tag k='name:ru' v='Сан-Франциско' />
    <tag k='name:ta' v='ஸான் ப்²ரான்ஸிஸ்கொ' />
    <tag k='name:zh' v='旧金山' />
  </node>
  <node id='-65348'>
    <tag k='name' v='Santa Cruz' />
    <tag k='name:en' v='Santa Cruz' />
    <tag k='name:ru' v='Санта-Крус' />
    <tag k='name:uk' v='Санта-Круз' />
    <tag k='name:pt' v='Santa Cruz' />
    <tag k='name:es' v='Santa Cruz' />
    <tag k='name:sr' v='Санта Круз' />
    <tag k='name:fr' v='Santa Cruz' />
    <tag k='name:ar' v='سانتا كروز' />
    <tag k='is:in' v='California' />
  </node>
  <node id='-65349'>
    <tag k='name' v='Stockton' />
    <tag k='name:ar' v='ستوكتون' />
    <tag k='name:es' v='Stockton' />
    <tag k='name:ru' v='Стоктон' />
    <tag k='name:sr' v='Стоктон' />
    <tag k='name:en' v='Stockton' />
    <tag k='name:fi' v='Stockton' />
    <tag k='name:zh' v='斯托克顿' />
  </node>
  <node id='-65350'>
    <tag k='name' v='Redding' />
    <tag k='name:ar' v='ردينغ' />
    <tag k='name:de' v='Redding' />
    <tag k='name:es' v='Redding' />
    <tag k='name:fr' v='Redding' />
    <tag k='name:pt' v='Redding' />
    <tag k='name:ru' v='Реддинг' />
    <tag k='name:sr' v='Рединг' />
    <tag k='name:zh' v='雷丁' />
  </node>
  <node id='-65351'>
    <tag k='name' v='Northwestern' />
    <tag k='name:ar' v='نورث وسترن' />
    <tag k='name:de' v='Nordwesten' />
    <tag k='name:es' v='Noroeste' />
    <tag k='name:fr' v='Nord-ouest' />
    <tag k='name:pt' v='Noroeste' />
    <tag k='name:ru' v='Северо-запад' />
    <tag k='name:sr' v='Северозападни' />
    <tag k='name:zh' v='西北部' />
  </node>
  <node id='-65311'>
    <tag k='name' v='Victoria' />
    <tag k='name:en' v='Victoria' />
    <tag k='is_in' v='USA' />
  </node>

  <node id='-65352'>
    <tag k='is_in:country' v='Switzerland' />
    <tag k='name' v='Central' />
    <tag k='name:ar' v='وسط' />
    <tag k='name:de' v='Zentral' />
    <tag k='name:es' v='Central' />
    <tag k='name:fr' v='Central' />
    <tag k='name:he' v='מֶרכָּזִי' />
    <tag k='name:hu' v='Központi' />
    <tag k='name:ko' v='본부' />
    <tag k='name:pl' v='Centralny' />
    <tag k='name:pt' v='Central' />
    <tag k='name:ru' v='Центр' />
    <tag k='name:sr' v='Централ' />
    <tag k='name:tk' v='Merkezi' />
    <tag k='name:zh' v='中央' />
  </node>
  <node id='-65353'>
    <tag k='is_in:country' v='Switzerland' />
    <tag k='name' v='Eastern' />
    <tag k='name:ar' v='الشرقية' />
    <tag k='name:de' v='Östlich' />
    <tag k='name:es' v='Oriental' />
    <tag k='name:fr' v='Est' />
    <tag k='name:he' v='מזרחי' />
    <tag k='name:hu' v='Keleti' />
    <tag k='name:ko' v='동부의' />
    <tag k='name:pl' v='Wschodni' />
    <tag k='name:pt' v='Oriental' />
    <tag k='name:ru' v='Восточный' />
    <tag k='name:sr' v='Источна' />
    <tag k='name:tk' v='Doğu' />
    <tag k='name:zh' v='东' />
  </node>

  <relation id="1702527">
    <tag k="ISO3166-2" v="FI-IS"/>
    <tag k="admin_level" v="4"/>
    <tag k="boundary" v="administrative"/>
    <tag k="is_in:continent" v="Europe"/>
    <tag k="is_in:country" v="Finland"/>
    <tag k="is_in:country_code" v="FI"/>
    <tag k="name" v="Itä-Suomi"/>
    <tag k="name:ar" v="فنلندا الشرقية"/>
    <tag k="name:de" v="Ostfinnland"/>
    <tag k="name:en" v="Eastern Finland"/>
    <tag k="name:es" v="Finlandia Oriental"/>
    <tag k="name:fi" v="Itä-Suomi"/>
    <tag k="name:fr" v="Finlande orientale"/>
    <tag k="name:lt" v="Rytų Suomija"/>
    <tag k="name:ru" v="Восточная Финляндия"/>
    <tag k="name:sv" v="Östra Finland"/>
    <tag k="ref" v="FI13"/>
    <tag k="type" v="boundary"/>
    <tag k="wikidata" v="Q194073"/>
  </relation>

  <relation id="1702">
    <tag k="name" v="Pohjois-Suomi"/>
    <tag k="name:ar" v="شمال فنلندا"/>
    <tag k="name:de" v="Nordfinnland"/>
    <tag k="name:en" v="Northern Finland"/>
    <tag k="name:es" v="Norte de Finlandia"/>
    <tag k="name:fi" v="Itä-Suomi"/>
    <tag k="name:fr" v="Nord-Finlande"/>
    <tag k="name:lt" v="Šiaurės Suomija"/>
    <tag k="name:ru" v="Северная Финляндия"/>
    <tag k="name:sv" v="Norra Finland"/>
  </relation>

  <relation id="1">
    <tag k="name" v="Эвенкийский район (север)"/>
    <tag k="name:en" v="Evenkiysky Rayon (north)"/>
    <tag k="name:ru" v="Эвенкийский район (север)"/>
    <tag k="type" v="boundary"/>
  </relation>
  <relation id="12">
    <tag k="name" v="Эвенкийский район (центр)"/>
    <tag k="name:en" v="Evenkiysky Rayon (central)"/>
    <tag k="name:ru" v="Эвенкийский район (центр)"/>
    <tag k="type" v="boundary"/>
  </relation>
  <relation id="14">
    <tag k="name" v="Эвенкийский район (юг)"/>
    <tag k="name:en" v="Evenkiysky Rayon (south)"/>
    <tag k="name:ru" v="Эвенкийский район (юг)"/>
    <tag k="type" v="boundary"/>
  </relation>

  <relation id="142">
    <tag k="name" v="Greenland (north)"/>
    <tag k="name:en" v="Greenland (north)"/>
    <tag k="name:ru" v="Гренландия (север)"/>
    <tag k="type" v="boundary"/>
  </relation>
  <relation id="143">
    <tag k="name" v="Greenland (central)"/>
    <tag k="name:en" v="Greenland (central)"/>
    <tag k="name:ru" v="Гренландия (центр)"/>
    <tag k="type" v="boundary"/>
  </relation>
  <relation id="145">
    <tag k="name" v="Greenland (central-west)"/>
    <tag k="name:en" v="Greenland (central-west)"/>
    <tag k="name:ru" v="Гренландия (центр-запад)"/>
    <tag k="type" v="boundary"/>
  </relation>
  <relation id="146">
    <tag k="name" v="Greenland (central-east)"/>
    <tag k="name:en" v="Greenland (central-east)"/>
    <tag k="name:ru" v="Гренландия (центр-восток)"/>
    <tag k="type" v="boundary"/>
  </relation>
  <relation id="144">
    <tag k="name" v="Greenland (south)"/>
    <tag k="name:en" v="Greenland (south)"/>
    <tag k="name:ru" v="Гренландия (юг)"/>
    <tag k="type" v="boundary"/>
  </relation>
  <relation id="147">
    <tag k="name" v="Greenland (north-east)"/>
    <tag k="name:en" v="Greenland (north-east)"/>
    <tag k="name:ru" v="Гренландия (северо-восток)"/>
    <tag k="type" v="boundary"/>
  </relation>
  <relation id="148">
    <tag k="name" v="Greenland (north-west)"/>
    <tag k="name:en" v="Greenland (north-west)"/>
    <tag k="name:ru" v="Гренландия (северо-запад)"/>
    <tag k="type" v="boundary"/>
  </relation>
  <relation id="148">
    <tag k="name" v="Greenland (south-east)"/>
    <tag k="name:en" v="Greenland (south-east)"/>
    <tag k="name:ru" v="Гренландия (юго-восток)"/>
    <tag k="type" v="boundary"/>
  </relation>
  <relation id="149">
    <tag k="name" v="Greenland (south-west)"/>
    <tag k="name:en" v="Greenland (south-west)"/>
    <tag k="name:ru" v="Гренландия (юго-запад)"/>
    <tag k="type" v="boundary"/>
  </relation>
  <relation id="2605315">
    <tag k="admin_level" v="6"/>
    <tag k="alt_name" v="Valdez-Cordova (CA)"/>
    <tag k="boundary" v="census"/>
    <tag k="name" v="Valdez-Cordova"/>
    <tag k="nist:fips_code" v="02261"/>
    <tag k="nist:state_fips" v="02"/>
    <tag k="official_name" v="Valdez-Cordova Census Area"/>
    <tag k="type" v="boundary"/>
    <tag k="wikidata" v="Q508618"/>
    <tag k="wikipedia" v="en:Valdez–Cordova Census Area, Alaska"/>
  </relation>
  <relation id="62712">
    <tag k="admin_level" v="4"/>
    <tag k="border_type" v="state"/>
    <tag k="boundary" v="administrative"/>
    <tag k="name" v="Bremen and surroundings"/>
    <tag k="name:ar" v="بريمن والمناطق المحيطة بها"/>
    <tag k="name:cs" v="Brémy a okolí"/>
    <tag k="name:da" v="Bremen og omegn"/>
    <tag k="name:en" v="Bremen and surroundings"/>
    <tag k="name:eo" v="Bremeno kaj ĉirkaŭaĵo"/>
    <tag k="name:fa" v="برمن و اطراف"/>
    <tag k="name:fi" v="Bremen ja sen ympäristö"/>
    <tag k="name:fr" v="Brême et environs"/>
    <tag k="name:hi" v="ब्रेमेन और परिवेश"/>
    <tag k="name:hu" v="Bréma és környéke"/>
    <tag k="name:ko" v="브레멘과 그 주변"/>
    <tag k="name:la" v="Bremensis et vicinis"/>
    <tag k="name:mk" v="Бремен и околината"/>
    <tag k="name:pt" v="Bremen e arredores"/>
    <tag k="name:ru" v="Бремен и окрестности"/>
    <tag k="name:tr" v="Bremen ve çevresi"/>
    <tag k="name:uk" v="Тягар і околиці"/>
    <tag k="name:ur" v="بریمن اور گردونواح"/>
    <tag k="name:zh" v="不來梅及周邊地區"/>
    <tag k="type" v="boundary"/>
  </relation>
  <relation id="6212">
    <tag k="border_type" v="state"/>
    <tag k="boundary" v="administrative"/>
    <tag k="name" v="Cape Coral and surroundings"/>
    <tag k="name:ar" v="كيب كورال والمناطق المحيطة بها"/>
    <tag k="name:cs" v="Cape Coral a okolí"/>
    <tag k="name:da" v="Cape Coral og omegn"/>
    <tag k="name:en" v="Cape Coral and surroundings"/>
    <tag k="name:fi" v="Cape Coral ja sen ympäristö"/>
    <tag k="name:fr" v="Cap Coral et environs"/>
    <tag k="name:hu" v="Cape Coral és környéke"/>
    <tag k="name:ko" v="케이프 산호와 주변"/>
    <tag k="name:pt" v="Cape Coral e arredores"/>
    <tag k="name:ru" v="Кейп-Корал и окрестности"/>
    <tag k="name:zh" v="珊瑚角及周邊地區"/>
    <tag k="type" v="boundary"/>
  </relation>
  <relation id="6213">
    <tag k="border_type" v="state"/>
    <tag k="boundary" v="administrative"/>
    <tag k="name" v="Jacksonville and surroundings"/>
    <tag k="name:ar" v="جاكسونفيل والمناطق المحيطة بها"/>
    <tag k="name:cs" v="Jacksonville a okolí"/>
    <tag k="name:da" v="Jacksonville og omegn"/>
    <tag k="name:en" v="Jacksonville and surroundings"/>
    <tag k="name:fi" v="Jacksonville ja sen ympäristö"/>
    <tag k="name:fr" v="Jacksonville et environs"/>
    <tag k="name:hu" v="Jacksonville és környéke"/>
    <tag k="name:ko" v="잭슨빌과 그 주변"/>
    <tag k="name:pt" v="Jacksonville e arredores"/>
    <tag k="name:ru" v="Джэксонвилл и окрестности"/>
    <tag k="name:zh" v="傑克遜維爾及周邊地區"/>
    <tag k="type" v="boundary"/>
  </relation>
  <relation id="6214">
    <tag k="border_type" v="state"/>
    <tag k="boundary" v="administrative"/>
    <tag k="name" v="Miami and surroundings"/>
    <tag k="name:ar" v="ميامي والمناطق المحيطة بها"/>
    <tag k="name:cs" v="Miami a okolí"/>
    <tag k="name:da" v="Miami og omegn"/>
    <tag k="name:en" v="Miami and surroundings"/>
    <tag k="name:fi" v="Miami ja sen ympäristö"/>
    <tag k="name:fr" v="Miami et environs"/>
    <tag k="name:hu" v="Miami és környéke"/>
    <tag k="name:ko" v="마이애미와 그 주변"/>
    <tag k="name:pt" v="Miami e arredores"/>
    <tag k="name:ru" v="Майами и окрестности"/>
    <tag k="name:zh" v="邁阿密及周邊"/>
    <tag k="type" v="boundary"/>
  </relation>
  <relation id="6215">
    <tag k="border_type" v="state"/>
    <tag k="boundary" v="administrative"/>
    <tag k="name" v="Orlando and surroundings"/>
    <tag k="name:ar" v="أورلاندو والمناطق المحيطة بها"/>
    <tag k="name:cs" v="Orlando a okolí"/>
    <tag k="name:da" v="Orlando og omegn"/>
    <tag k="name:en" v="Orlando and surroundings"/>
    <tag k="name:fi" v="Orlando ja sen ympäristö"/>
    <tag k="name:fr" v="Orlando et environs"/>
    <tag k="name:hu" v="Orlando és környéke"/>
    <tag k="name:ko" v="올랜도와 그 주변"/>
    <tag k="name:pt" v="Orlando e arredores"/>
    <tag k="name:ru" v="Орландо и окрестности"/>
    <tag k="name:zh" v="奧蘭多及周邊"/>
    <tag k="type" v="boundary"/>
  </relation>
  <relation id="6216">
    <tag k="border_type" v="state"/>
    <tag k="boundary" v="administrative"/>
    <tag k="name" v="Pensacola and surroundings"/>
    <tag k="name:ar" v="بينساكولا والمناطق المحيطة بها"/>
    <tag k="name:cs" v="Pensacola a okolí"/>
    <tag k="name:da" v="Pensacola og omegn"/>
    <tag k="name:en" v="Pensacola and surroundings"/>
    <tag k="name:fi" v="Pensacola ja sen ympäristö"/>
    <tag k="name:fr" v="Pensacola et environs"/>
    <tag k="name:hu" v="Pensacola és környéke"/>
    <tag k="name:ko" v="펜사콜라와 그 주변"/>
    <tag k="name:pt" v="Pensacola e arredores"/>
    <tag k="name:ru" v="Пенсакола и окрестности"/>
    <tag k="name:zh" v="彭薩科拉及周邊地區"/>
    <tag k="type" v="boundary"/>
  </relation>
  <relation id="6217">
    <tag k="border_type" v="state"/>
    <tag k="boundary" v="administrative"/>
    <tag k="name" v="Port Saint Lucie and surroundings"/>
    <tag k="name:ar" v="ميناء سانت لوسي والمناطق المحيطة بها"/>
    <tag k="name:cs" v="Port Saint Lucie a okolí"/>
    <tag k="name:da" v="Port Saint Lucie og omegn"/>
    <tag k="name:en" v="Port Saint Lucie and surroundings"/>
    <tag k="name:fi" v="Port Saint Lucie ja sen ympäristö"/>
    <tag k="name:fr" v="Port Saint Lucie et environs"/>
    <tag k="name:hu" v="Port Saint Lucie és környéke"/>
    <tag k="name:ko" v="포트 세인트 루시와 그 주변"/>
    <tag k="name:pt" v="Port Saint Lucie e arredores"/>
    <tag k="name:ru" v="Порт-Сент-Луси и окрестности"/>
    <tag k="name:zh" v="聖露西港及周邊地區"/>
    <tag k="type" v="boundary"/>
  </relation>
  <relation id="6218">
    <tag k="border_type" v="state"/>
    <tag k="boundary" v="administrative"/>
    <tag k="name" v="Tallahassee and surroundings"/>
    <tag k="name:ar" v="تالاهاسي والمناطق المحيطة بها"/>
    <tag k="name:cs" v="Tallahassee a okolí"/>
    <tag k="name:da" v="Tallahassee og omegn"/>
    <tag k="name:en" v="Tallahassee and surroundings"/>
    <tag k="name:fi" v="Tallahassee ja sen ympäristö"/>
    <tag k="name:fr" v="Tallahassee et environs"/>
    <tag k="name:hu" v="Tallahassee és környéke"/>
    <tag k="name:ko" v="탤러해시와 그 주변"/>
    <tag k="name:pt" v="Tallahassee e arredores"/>
    <tag k="name:ru" v="Таллахасси и окрестности"/>
    <tag k="name:zh" v="塔拉哈西及周邊地區"/>
    <tag k="type" v="boundary"/>
  </relation>
  <relation id="6219">
    <tag k="border_type" v="state"/>
    <tag k="boundary" v="administrative"/>
    <tag k="name" v="Tampa and surroundings"/>
    <tag k="name:ar" v="تامبا والمناطق المحيطة بها"/>
    <tag k="name:cs" v="Tampa a okolí"/>
    <tag k="name:da" v="Tampa og omegn"/>
    <tag k="name:en" v="Tampa and surroundings"/>
    <tag k="name:fi" v="Tampa ja sen ympäristö"/>
    <tag k="name:fr" v="Tampa et environs"/>
    <tag k="name:hu" v="Tampa és környéke"/>
    <tag k="name:ko" v="탬파와 그 주변"/>
    <tag k="name:pt" v="Tampa e arredores"/>
    <tag k="name:ru" v="Тампа и окрестности"/>
    <tag k="name:zh" v="坦帕及周邊地區"/>
    <tag k="type" v="boundary"/>
  </relation>
  <relation id="6220">
    <tag k="border_type" v="state"/>
    <tag k="boundary" v="administrative"/>
    <tag k="name" v="Albany and surroundings"/>
    <tag k="name:ar" v="ألباني والمناطق المحيطة بها"/>
    <tag k="name:cs" v="Albany a okolí"/>
    <tag k="name:da" v="Albany og omegn"/>
    <tag k="name:en" v="Albany and surroundings"/>
    <tag k="name:fi" v="Albany ja sen ympäristö"/>
    <tag k="name:fr" v="Albany et environs"/>
    <tag k="name:hu" v="Albany és környéke"/>
    <tag k="name:ko" v="알바니와 그 주변"/>
    <tag k="name:pt" v="Albany e arredores"/>
    <tag k="name:ru" v="Олбани и окрестности"/>
    <tag k="name:zh" v="奧爾巴尼及周邊地區"/>
    <tag k="type" v="boundary"/>
  </relation>
  <relation id="6221">
    <tag k="border_type" v="state"/>
    <tag k="boundary" v="administrative"/>
    <tag k="name" v="Buffalo and surroundings"/>
    <tag k="name:ar" v="الجاموس والمناطق المحيطة بها"/>
    <tag k="name:cs" v="Buffalo a okolí"/>
    <tag k="name:da" v="Buffalo og omegn"/>
    <tag k="name:en" v="Buffalo and surroundings"/>
    <tag k="name:fi" v="Buffalo ja sen ympäristö"/>
    <tag k="name:fr" v="Buffalo et environs"/>
    <tag k="name:hu" v="Buffalo és környéke"/>
    <tag k="name:ko" v="버팔로와 그 주변"/>
    <tag k="name:pt" v="Buffalo e arredores"/>
    <tag k="name:ru" v="Буффало и окрестности"/>
    <tag k="name:zh" v="布法羅及周邊地區"/>
    <tag k="type" v="boundary"/>
  </relation>
  <relation id="6222">
    <tag k="border_type" v="state"/>
    <tag k="boundary" v="administrative"/>
    <tag k="name" v="New York City and surroundings"/>
    <tag k="name:ar" v="مدينة نيويورك والمناطق المحيطة بها"/>
    <tag k="name:cs" v="New York City a okolí"/>
    <tag k="name:da" v="New York City og omegn"/>
    <tag k="name:en" v="New York City and surroundings"/>
    <tag k="name:fi" v="New York City ja sen ympäristö"/>
    <tag k="name:fr" v="New York City et environs"/>
    <tag k="name:hu" v="New York City és környéke"/>
    <tag k="name:ko" v="뉴욕시와 그 주변"/>
    <tag k="name:pt" v="New York City e arredores"/>
    <tag k="name:ru" v="Нью-Йорк и окрестности"/>
    <tag k="name:zh" v="紐約市及周邊地區"/>
    <tag k="type" v="boundary"/>
  </relation>
  <relation id="6223">
    <tag k="border_type" v="state"/>
    <tag k="boundary" v="administrative"/>
    <tag k="name" v="Syracuse and surroundings"/>
    <tag k="name:ar" v="سيراكيوز والمناطق المحيطة بها"/>
    <tag k="name:cs" v="Syracuse a okolí"/>
    <tag k="name:da" v="Syracuse og omegn"/>
    <tag k="name:en" v="Syracuse and surroundings"/>
    <tag k="name:fi" v="Syracuse ja sen ympäristö"/>
    <tag k="name:fr" v="Syracuse et environs"/>
    <tag k="name:hu" v="Syracuse és környéke"/>
    <tag k="name:ko" v="시라쿠사와 그 주변"/>
    <tag k="name:pt" v="Syracuse e arredores"/>
    <tag k="name:ru" v="Сиракузы и окрестности"/>
    <tag k="name:zh" v="錫拉丘茲及周邊地區"/>
    <tag k="type" v="boundary"/>
  </relation>
  <relation id="6224">
    <tag k="border_type" v="state"/>
    <tag k="boundary" v="administrative"/>
    <tag k="name" v="Utica and surroundings"/>
    <tag k="name:ar" v="يوتيكا والمناطق المحيطة بها"/>
    <tag k="name:cs" v="Utica a okolí"/>
    <tag k="name:da" v="Utica og omegn"/>
    <tag k="name:en" v="Utica and surroundings"/>
    <tag k="name:fi" v="Utica ja sen ympäristö"/>
    <tag k="name:fr" v="Utica et environs"/>
    <tag k="name:hu" v="Utica és környéke"/>
    <tag k="name:ko" v="유티카와 그 주변"/>
    <tag k="name:pt" v="Utica e arredores"/>
    <tag k="name:ru" v="Ютика и окрестности"/>
    <tag k="name:zh" v="尤蒂卡及周邊地區"/>
    <tag k="type" v="boundary"/>
  </relation>
