  <relation id="62504">
    <tag k="name:am" v="ብራንደንቡርግ, በርሊን"/>
    <tag k="name:an" v="Brandemburgo, Berlín"/>
    <tag k="name:ar" v="براندنبورغ, برلين"/>
    <tag k="name:az" v="Brandenburq, Berlin"/>
    <tag k="name:ba" v="Бранденбург, Берлин"/>
    <tag k="name:be" v="Брандэнбург, Берлін"/>
    <tag k="name:bg" v="Бранденбург, Берлин"/>
    <tag k="name:bn" v="ব্রান্ডেনবুর্গ, বার্লিন"/>
    <tag k="name:ca" v="Brandenburg, Berlín"/>
    <tag k="name:cs" v="Braniborsko, Berlín"/>
    <tag k="name:cv" v="Бранденбург, Берлин"/>
    <tag k="name:de" v="Brandenburg, Berlin"/>
    <tag k="name:el" v="Βρανδεμβούργο, Βερολίνο"/>
    <tag k="name:en" v="Brandenburg, Berlin"/>
    <tag k="name:eo" v="Brandenburgio, Berlino"/>
    <tag k="name:es" v="Brandemburgo, Berlín"/>
    <tag k="name:eu" v="Brandenburgo, Berlin"/>
    <tag k="name:fa" v="براندنبورگ, برلین"/>
    <tag k="name:fr" v="Brandebourg, Berlin"/>
    <tag k="name:fy" v="Brandenburch, Berlyn"/>
    <tag k="name:gl" v="Brandeburgo, Berlín"/>
    <tag k="name:gn" v="Brandeburgo, Berlin"/>
    <tag k="name:he" v="ברנדנבורג, ברלין"/>
    <tag k="name:hi" v="ब्रैंडेनबर्ग, बर्लिन"/>
    <tag k="name:hsb" v="Braniborska, Berlin"/>
    <tag k="name:hu" v="Brandenburg, Berlin"/>
    <tag k="name:hy" v="Բրանդենբուրգ, Բեռլին"/>
    <tag k="name:ia" v="Brandeburgo, Berlin"/>
    <tag k="name:ie" v="Brandenburgia, Berlin"/>
    <tag k="name:is" v="Brandenborg, Berlín"/>
    <tag k="name:it" v="Brandeburgo, Berlino"/>
    <tag k="name:ja" v="ブランデンブルク州, ベルリン"/>
    <tag k="name:ka" v="ბრანდენბურგი, ბერლინი"/>
    <tag k="name:kk" v="Бранденбург, Берлин"/>
    <tag k="name:ko" v="브란덴부르크 주, 베를린"/>
    <tag k="name:la" v="Brandenburgum, Berolinum"/>
    <tag k="name:lb" v="Brandenburg, Berlin"/>
    <tag k="name:li" v="Brandeburg, Berlien"/>
    <tag k="name:lt" v="Brandenburgas, Berlynas"/>
    <tag k="name:lv" v="Brandenburga, Berlīne"/>
    <tag k="name:mk" v="Бранденбург, Берлин"/>
    <tag k="name:mn" v="Бранденбург, Берлин"/>
    <tag k="name:mr" v="ब्रांडेनबुर्ग, बर्लिन"/>
    <tag k="name:nl" v="Brandenburg, Berlijn"/>
    <tag k="name:oc" v="Brandeborg, Berlin"/>
    <tag k="name:os" v="Бранденбург, Берлин"/>
    <tag k="name:pl" v="Brandeburgia, Berlin"/>
    <tag k="name:pt" v="Brandemburgo, Berlim"/>
    <tag k="name:ro" v="Brandenburg, Berlin"/>
    <tag k="name:ru" v="Бранденбург, Берлин"/>
    <tag k="name:sk" v="Brandenbursko, Berlín"/>
    <tag k="name:sq" v="Brandenburgu, Berlini"/>
    <tag k="name:sr" v="Бранденбург, Берлин"/>
    <tag k="name:th" v="รัฐบรันเดินบวร์ค, เบอร์ลิน"/>
    <tag k="name:tl" v="Brandeburgo, Berlin"/>
    <tag k="name:uk" v="Бранденбург, Берлін"/>
    <tag k="name:ur" v="برندنبرگ, برلن"/>
    <tag k="name:yi" v="בראנדנבורג, בערלין"/>
    <tag k="name:zh" v="勃兰登堡州, 柏林"/>
  </relation>
