  <relation id="53134">
    <tag k="name:ar" v="فلاندر, بروكسل العاصمة"/>
    <tag k="name:ca" v="Flandes, Brussel·les-Capital"/>
    <tag k="name:de" v="Flandern, Brüssel-Hauptstadt"/>
    <tag k="name:en" v="Flanders, Brussels-Capital"/>
    <tag k="name:eo" v="Flandrio, Brusela Ĉefurba"/>
    <tag k="name:es" v="Flandes, Bruselas-Capital"/>
    <tag k="name:fr" v="Flandre, Bruxelles-Capitale"/>
    <tag k="name:fy" v="Flaanderen, Brusselsk Haadsteedlik Gewest"/>
    <tag k="name:hu" v="Flandria, Brüsszel főváros"/>
    <tag k="name:lb" v="Flandern, Haaptstad Bréissel"/>
    <tag k="name:nl" v="Vlaanderen, Brussel Hoofdstad"/>
    <tag k="name:pcd" v="Flande, Brusselle-Capitale"/>
    <tag k="name:ro" v="Flandra, Regiunea Capitalei Bruxelles"/>
    <tag k="name:ru" v="Фландрия, Брюссельский столичный регион"/>
    <tag k="name:sk" v="Flámsko, Bruselský región"/>
    <tag k="name:ur" v="فلاندرن, برسلز دارالحکومت"/>
    <tag k="name:vls" v="Vloandern, Brussel Oofdstad"/>
    <tag k="name:wa" v="Flande, Brussele-Capitåle"/>
  </relation>
